NORAD_CAT_ID,OBJECT_NAME,OBJECT_TYPE,EPOCH,MEAN_MOTION,ECCENTRICITY,INCLINATION,RA_OF_ASC_NODE,ARG_OF_PERICENTER,MEAN_ANOMALY,BSTAR,MEAN_MOTION_DOT,MEAN_MOTION_DDOT,TLE_LINE0,TLE_LINE1,TLE_LINE2,SEMIMAJOR_AXIS,PERIOD,APOGEE,PERIGEE,DECAYED
50190.0,STARLINK-3268,PAYLOAD,2022-07-20 09:23:42,15.08867477,0.0002075,53.2172,82.0779,61.06,299.06,0.0006746,0.00010473,0.0,0 STARLINK-3268,1 50190U 21125AL  22201.39146744  .00010473  00000-0  67460-3 0  9992,2 50190  53.2172  82.0779 0002075  61.0600 299.0600 15.08867477 36207,6917.795999999999,95.436,541.097,538.226,0.0
50190.0,STARLINK-3268,PAYLOAD,2022-07-20 18:56:01,15.08853885,0.0001936,53.2172,80.2939,61.5053,298.6134,0.00010562,1.394e-05,0.0,0 STARLINK-3268,1 50190U 21125AL  22201.78890554  .00001394  00000-0  10562-3 0  9993,2 50190  53.2172  80.2939 0001936  61.5053 298.6134 15.08853885 35784,6917.8380000000025,95.437,541.0419999999998,538.364,0.0
50190.0,STARLINK-3268,PAYLOAD,2022-07-20 20:31:24,15.08851014,0.0001789,53.2175,79.9963,59.7621,300.3548,6.3606e-05,7.25e-06,0.0,0 STARLINK-3268,1 50190U 21125AL  22201.85514611  .00000725  00000-0  63606-4 0  9993,2 50190  53.2175  79.9963 0001789  59.7621 300.3548 15.08851014 36272,6917.847,95.437,540.9490000000002,538.474,0.0
50190.0,STARLINK-3268,PAYLOAD,2022-07-21 01:17:34,15.08845356,0.0001879,53.2176,79.1045,59.8342,300.2836,-4.2642e-05,-9.67e-06,0.0,0 STARLINK-3268,1 50190U 21125AL  22202.05386762 -.00000967  00000-0 -42642-4 0  9997,2 50190  53.2176  79.1045 0001879  59.8342 300.2836 15.08845356 35828,6917.864000000001,95.437,541.029,538.429,0.0
50190.0,STARLINK-3268,PAYLOAD,2022-07-21 09:14:30,15.08827093,0.0001986,53.2177,77.6181,59.596,300.5229,-0.00032162,-5.401e-05,0.0,0 STARLINK-3268,1 50190U 21125AL  22202.38507664 -.00005401  00000-0 -32162-3 0  9992,2 50190  53.2177  77.6181 0001986  59.5960 300.5229 15.08827093 36351,6917.92,95.438,541.159,538.411,0.0
50190.0,STARLINK-3268,PAYLOAD,2022-07-22 02:43:46,15.08826124,0.0001976999999999,53.2189,74.3474,62.4212,297.698,-0.00013832,-2.488e-05,0.0,0 STARLINK-3268,1 50190U 21125AL  22203.11373464 -.00002488  00000-0 -13832-3 0  9998,2 50190  53.2189  74.3474 0001977  62.4212 297.6980 15.08826124 35988,6917.9230000000025,95.438,541.155,538.42,0.0
50190.0,STARLINK-3268,PAYLOAD,2022-07-22 09:05:19,15.08831308,0.0001959,53.2188,73.1581,60.29,299.8287,-0.00011585,-2.131e-05,0.0,0 STARLINK-3268,1 50190U 21125AL  22203.37869226 -.00002131  00000-0 -11585-3 0  9990,2 50190  53.2188  73.1581 0001959  60.2900 299.8287 15.08831308 36023,6917.906999999997,95.438,541.127,538.4169999999998,0.0
50190.0,STARLINK-3268,PAYLOAD,2022-07-22 20:13:00,15.08834515,0.0001797,53.2189,71.0759,60.62,299.4972,1.6632e-05,-2.3e-07,0.0,0 STARLINK-3268,1 50190U 21125AL  22203.84236769 -.00000023  00000-0  16632-4 0  9998,2 50190  53.2189  71.0759 0001797  60.6200 299.4972 15.08834515 36575,6917.897,95.438,541.005,538.519,0.0
50190.0,STARLINK-3268,PAYLOAD,2022-07-23 00:59:10,15.08832199,0.0001849,53.219,70.1843,57.1812,302.9358,5.4901e-05,5.86e-06,0.0,0 STARLINK-3268,1 50190U 21125AL  22204.04108969  .00000586  00000-0  54901-4 0  9995,2 50190  53.2190  70.1843 0001849  57.1812 302.9358 15.08832199 36124,6917.904,95.438,541.048,538.49,0.0
50190.0,STARLINK-3268,PAYLOAD,2022-07-23 21:39:11,15.08823455,0.0001793,53.219,66.3189,55.7388,304.3774,0.00021313,3.104e-05,0.0,0 STARLINK-3268,1 50190U 21125AL  22204.90221927  .00003104  00000-0  21313-3 0  9999,2 50190  53.2190  66.3189 0001793  55.7388 304.3774 15.08823455 36734,6917.931,95.439,541.036,538.556,0.0
50190.0,STARLINK-3268,PAYLOAD,2022-07-24 07:11:30,15.08831697,0.0001792,53.219,64.5348,54.2946,305.8213,0.00020016,2.898e-05,0.0,0 STARLINK-3268,1 50190U 21125AL  22205.29965894  .00002898  00000-0  20016-3 0  9998,2 50190  53.2190  64.5348 0001792  54.2946 305.8213 15.08831697 36791,6917.906,95.438,541.01,538.531,0.0
50190.0,STARLINK-3268,PAYLOAD,2022-07-24 21:29:58,15.0884311,0.0001786999999999,53.2188,61.8585,54.7251,305.3908,0.00019338,2.791e-05,0.0,0 STARLINK-3268,1 50190U 21125AL  22205.89581314  .00002791  00000-0  19338-3 0  9992,2 50190  53.2188  61.8585 0001787  54.7251 305.3908 15.08843110 36406,6917.871,95.437,540.972,538.5,0.0
50190.0,STARLINK-3268,PAYLOAD,2022-07-25 07:02:17,15.08835029,0.0001727,53.2181,60.0757,50.7724,309.3421,3.4667e-05,2.64e-06,0.0,0 STARLINK-3268,1 50190U 21125AL  22206.29326266  .00000264  00000-0  34667-4 0  9996,2 50190  53.2181  60.0757 0001727  50.7724 309.3421 15.08835029 36466,6917.896,95.438,540.955,538.566,0.0
50190.0,STARLINK-3268,PAYLOAD,2022-07-25 21:20:45,15.08836811,0.0001779,53.2187,57.3986,55.5327,304.5833,0.00010403,1.368e-05,0.0,0 STARLINK-3268,1 50190U 21125AL  22206.88942006  .00001368  00000-0  10403-3 0  9994,2 50190  53.2187  57.3986 0001779  55.5327 304.5833 15.08836811 37032,6917.89,95.438,540.986,538.524,0.0
50190.0,STARLINK-3268,PAYLOAD,2022-07-26 06:53:04,15.08843414,0.000186,53.2188,55.6142,55.8658,304.2511,0.00013242,1.82e-05,0.0,0 STARLINK-3268,1 50190U 21125AL  22207.28685590  .00001820  00000-0  13242-3 0  9998,2 50190  53.2188  55.6142 0001860  55.8658 304.2511 15.08843414 37092,6917.87,95.437,541.0219999999998,538.448,0.0
50190.0,STARLINK-3268,PAYLOAD,2022-07-26 21:11:32,15.08851414,0.0001915,53.2183,52.9384,58.8305,301.2875,0.00013935,1.931e-05,0.0,0 STARLINK-3268,1 50190U 21125AL  22207.88300935  .00001931  00000-0  13935-3 0  9993,2 50190  53.2183  52.9384 0001915  58.8305 301.2875 15.08851414 37187,6917.846,95.437,541.035,538.386,0.0
50190.0,STARLINK-3268,PAYLOAD,2022-07-26 22:46:56,15.08825882,0.0002072,53.2182,52.6413,65.9695,294.1514,0.00098774,0.00015461,0.0,0 STARLINK-3268,1 50190U 21125AL  22207.94926463  .00015461  00000-0  98774-3 0  9997,2 50190  53.2182  52.6413 0002072  65.9695 294.1514 15.08825882 36710,6917.924,95.438,541.222,538.355,0.0
50190.0,STARLINK-3268,PAYLOAD,2022-07-27 13:05:23,15.08850677,0.000195,53.2182,49.9646,59.833,300.2855,0.00021226,3.093e-05,0.0,0 STARLINK-3268,1 50190U 21125AL  22208.54540728  .00003093  00000-0  21226-3 0  9996,2 50190  53.2182  49.9646 0001950  59.8330 300.2855 15.08850677 36806,6917.848000000001,95.437,541.062,538.364,0.0
50190.0,STARLINK-3268,PAYLOAD,2022-07-27 19:26:55,15.08844754,0.0001935,53.2183,48.7747,59.86600000000001,300.2524,5.4125e-05,5.73e-06,0.0,0 STARLINK-3268,1 50190U 21125AL  22208.81036918  .00000573  00000-0  54125-4 0  9992,2 50190  53.2183  48.7747 0001935  59.8660 300.2524 15.08844754 37325,6917.866,95.437,541.069,538.3919999999998,0.0
50190.0,STARLINK-3268,PAYLOAD,2022-07-27 22:37:42,15.08844445,0.0001943,53.2182,48.1799,59.3354,300.783,4.3399e-05,4.03e-06,0.0,0 STARLINK-3268,1 50190U 21125AL  22208.94284895  .00000403  00000-0  43399-4 0  9998,2 50190  53.2182  48.1799 0001943  59.3354 300.7830 15.08844445 36869,6917.8669999999975,95.437,541.076,538.388,0.0
50190.0,STARLINK-3268,PAYLOAD,2022-07-28 12:56:09,15.08849288,0.0001945,53.2183,45.5037,60.5156,299.603,8.3282e-05,1.038e-05,0.0,0 STARLINK-3268,1 50190U 21125AL  22209.53900443  .00001038  00000-0  83282-4 0  9998,2 50190  53.2183  45.5037 0001945  60.5156 299.6030 15.08849288 37434,6917.852,95.437,541.063,538.371,0.0
50190.0,STARLINK-3268,PAYLOAD,2022-07-28 17:42:19,15.08850712,0.0001950999999999,53.2183,44.6119,60.2155,299.9031,9.874e-05,1.284e-05,0.0,0 STARLINK-3268,1 50190U 21125AL  22209.73772256  .00001284  00000-0  98740-4 0  9997,2 50190  53.2183  44.6119 0001951  60.2155 299.9031 15.08850712 37469,6917.848000000001,95.437,541.062,538.363,0.0
50190.0,STARLINK-3268,PAYLOAD,2022-07-29 06:25:23,15.08852867,0.0001862,53.2182,42.2323,61.8878,298.2302,0.00010767,1.426e-05,0.0,0 STARLINK-3268,1 50190U 21125AL  22210.26763781  .00001426  00000-0  10767-3 0  9990,2 50190  53.2182  42.2323 0001862  61.8878 298.2302 15.08852867 37061,6917.840999999999,95.437,540.994,538.418,0.0
50190.0,STARLINK-3268,PAYLOAD,2022-07-29 19:08:29,15.08839066,0.0001807,53.2191,39.8539,61.9792,298.1383,4.9029e-05,4.92e-06,0.0,0 STARLINK-3268,1 50190U 21125AL  22210.79756744  .00000492  00000-0  49029-4 0  9995,2 50190  53.2191  39.8539 0001807  61.9792 298.1383 15.08839066 37140,6917.8830000000025,95.438,540.998,538.498,0.0
50190.0,STARLINK-3268,PAYLOAD,2022-07-30 12:37:43,15.08844459,0.0001827,53.2191,36.5831,61.8832,298.2345,3.8428e-05,3.24e-06,0.0,0 STARLINK-3268,1 50190U 21125AL  22211.52620307  .00000324  00000-0  38428-4 0  9997,2 50190  53.2191  36.5831 0001827  61.8832 298.2345 15.08844459 37731,6917.8669999999975,95.437,540.996,538.4680000000002,0.0
50190.0,STARLINK-3268,PAYLOAD,2022-07-30 20:34:40,15.08831903,0.0001815,53.2194,35.0964,62.5306,297.587,-7.6295e-05,-1.502e-05,0.0,0 STARLINK-3268,1 50190U 21125AL  22211.85741458 -.00001502  00000-0 -76295-4 0  9999,2 50190  53.2194  35.0964 0001815  62.5306 297.5870 15.08831903 37786,6917.905,95.438,541.026,538.515,0.0
50190.0,STARLINK-3268,PAYLOAD,2022-07-30 22:10:03,15.08831424,0.0001819,53.2194,34.7991,61.9706,298.147,-7.9893e-05,-1.559e-05,0.0,0 STARLINK-3268,1 50190U 21125AL  22211.92365522 -.00001559  00000-0 -79893-4 0  9990,2 50190  53.2194  34.7991 0001819  61.9706 298.1470 15.08831424 37313,6917.906999999997,95.438,541.03,538.513,0.0
50190.0,STARLINK-3268,PAYLOAD,2022-07-31 12:28:32,15.08830529,0.0001753,53.2193,32.1228,59.2774,300.8391,7.9267e-06,-1.62e-06,0.0,0 STARLINK-3268,1 50190U 21125AL  22212.51981637 -.00000162  00000-0  79267-5 0  9991,2 50190  53.2193  32.1228 0001753  59.2774 300.8391 15.08830529 37889,6917.909000000002,95.438,540.987,538.562,0.0
50190.0,STARLINK-3268,PAYLOAD,2022-07-31 18:50:04,15.08831994,0.0001766999999999,53.2194,30.9334,59.3973,300.7193,1.8726e-05,1e-07,0.0,0 STARLINK-3268,1 50190U 21125AL  22212.78477653  .00000010  00000-0  18726-4 0  9991,2 50190  53.2194  30.9334 0001767  59.3973 300.7193 15.08831994 37922,6917.905,95.438,540.992,538.547,0.0
